[{"OBJECT_NAME":"IRIDIUM 33 DEB","OBJECT_ID":"1997-051BV","EPOCH":"2026-03-14T11:17:32.897760","MEAN_MOTION":14.90626538,"ECCENTRICITY":0.00025637,"INCLINATION":86.2494,"RA_OF_ASC_NODE":246.0636,"ARG_OF_PERICENTER":105.5308,"MEAN_ANOMALY":282.9971,"EPHEMERIS_TYPE":0,"CLASSIFICATION_TYPE":"U","NORAD_CAT_ID":33960,"ELEMENT_SET_NO":999,"REV_AT_EPOCH":90231,"BSTAR":0.0031167313,"MEAN_MOTION_DOT":0.00030641,"MEAN_MOTION_DDOT":0},{"OBJECT_NAME":"IRIDIUM 33 DEB","OBJECT_ID":"1997-051CB","EPOCH":"2026-03-14T13:42:36.358560","MEAN_MOTION":14.50072651,"ECCENTRICITY":0.00050217,"INCLINATION":86.397,"RA_OF_ASC_NODE":6.6042,"ARG_OF_PERICENTER":256.489,"MEAN_ANOMALY":283.2892,"EPHEMERIS_TYPE":0,"CLASSIFICATION_TYPE":"U","NORAD_CAT_ID":33966,"ELEMENT_SET_NO":999,"REV_AT_EPOCH":89772,"BSTAR":0.00067860065,"MEAN_MOTION_DOT":2.65e-5,"MEAN_MOTION_DDOT":0},{"OBJECT_NAME":"IRIDIUM 33 DEB","OBJECT_ID":"1997-051CE","EPOCH":"2026-03-14T12:41:37.608000","MEAN_MOTION":14.50028805,"ECCENTRICITY":0.00080111,"INCLINATION":86.3494,"RA_OF_ASC_NODE":337.9346,"ARG_OF_PERICENTER":146.4386,"MEAN_ANOMALY":213.7328,"EPHEMERIS_TYPE":0,"CLASSIFICATION_TYPE":"U","NORAD_CAT_ID":34071,"ELEMENT_SET_NO":999,"REV_AT_EPOCH":89664,"BSTAR":0.00068216778,"MEAN_MOTION_DOT":2.663e-5,"MEAN_MOTION_DDOT":0},{"OBJECT_NAME":"IRIDIUM 33 DEB","OBJECT_ID":"1997-051CL","EPOCH":"2026-03-14T14:45:50.690592","MEAN_MOTION":14.66737329,"ECCENTRICITY":0.00124287,"INCLINATION":86.3886,"RA_OF_ASC_NODE":10.9723,"ARG_OF_PERICENTER":73.5353,"MEAN_ANOMALY":104.3596,"EPHEMERIS_TYPE":0,"CLASSIFICATION_TYPE":"U","NORAD_CAT_ID":34077,"ELEMENT_SET_NO":999,"REV_AT_EPOCH":89678,"BSTAR":0.0025233973,"MEAN_MOTION_DOT":0.00014106,"MEAN_MOTION_DDOT":0},{"OBJECT_NAME":"IRIDIUM 33 DEB","OBJECT_ID":"1997-051CN","EPOCH":"2026-03-14T04:51:44.970048","MEAN_MOTION":14.87226987,"ECCENTRICITY":0.0008712,"INCLINATION":86.3783,"RA_OF_ASC_NODE":326.9568,"ARG_OF_PERICENTER":34.582,"MEAN_ANOMALY":86.9982,"EPHEMERIS_TYPE":0,"CLASSIFICATION_TYPE":"U","NORAD_CAT_ID":34079,"ELEMENT_SET_NO":999,"REV_AT_EPOCH":90335,"BSTAR":0.0019631406,"MEAN_MOTION_DOT":0.00017735,"MEAN_MOTION_DDOT":0},{"OBJECT_NAME":"IRIDIUM 33 DEB","OBJECT_ID":"1997-051CX","EPOCH":"2026-03-14T13:22:11.980704","MEAN_MOTION":14.98496038,"ECCENTRICITY":0.00022933,"INCLINATION":86.386,"RA_OF_ASC_NODE":348.3225,"ARG_OF_PERICENTER":125.0759,"MEAN_ANOMALY":353.6474,"EPHEMERIS_TYPE":0,"CLASSIFICATION_TYPE":"U","NORAD_CAT_ID":34088,"ELEMENT_SET_NO":999,"REV_AT_EPOCH":90113,"BSTAR":0.0042679098,"MEAN_MOTION_DOT":0.00051358,"MEAN_MOTION_DDOT":0},{"OBJECT_NAME":"IRIDIUM 33 DEB","OBJECT_ID":"1997-051DA","EPOCH":"2026-03-14T13:33:07.752384","MEAN_MOTION":14.90358994,"ECCENTRICITY":0.00293875,"INCLINATION":86.3449,"RA_OF_ASC_NODE":24.5102,"ARG_OF_PERICENTER":342.1765,"MEAN_ANOMALY":17.8428,"EPHEMERIS_TYPE":0,"CLASSIFICATION_TYPE":"U","NORAD_CAT_ID":34091,"ELEMENT_SET_NO":999,"REV_AT_EPOCH":89230,"BSTAR":0.0064068073,"MEAN_MOTION_DOT":0.00063329,"MEAN_MOTION_DDOT":0},{"OBJECT_NAME":"IRIDIUM 33 DEB","OBJECT_ID":"1997-051DG","EPOCH":"2026-03-14T14:54:33.241248","MEAN_MOTION":14.35588058,"ECCENTRICITY":0.00838843,"INCLINATION":86.2007,"RA_OF_ASC_NODE":320.8414,"ARG_OF_PERICENTER":61.0096,"MEAN_ANOMALY":299.9475,"EPHEMERIS_TYPE":0,"CLASSIFICATION_TYPE":"U","NORAD_CAT_ID":34097,"ELEMENT_SET_NO":999,"REV_AT_EPOCH":88437,"BSTAR":0.0013879792,"MEAN_MOTION_DOT":4.181e-5,"MEAN_MOTION_DDOT":0},{"OBJECT_NAME":"IRIDIUM 33 DEB","OBJECT_ID":"1997-051DY","EPOCH":"2026-03-14T13:48:07.489152","MEAN_MOTION":14.43122877,"ECCENTRICITY":0.00530625,"INCLINATION":86.2079,"RA_OF_ASC_NODE":291.6037,"ARG_OF_PERICENTER":149.3379,"MEAN_ANOMALY":211.0942,"EPHEMERIS_TYPE":0,"CLASSIFICATION_TYPE":"U","NORAD_CAT_ID":34145,"ELEMENT_SET_NO":999,"REV_AT_EPOCH":88962,"BSTAR":0.00096470106,"MEAN_MOTION_DOT":3.313e-5,"MEAN_MOTION_DDOT":0},{"OBJECT_NAME":"IRIDIUM 33 DEB","OBJECT_ID":"1997-051DZ","EPOCH":"2026-03-14T02:37:01.634016","MEAN_MOTION":14.49757989,"ECCENTRICITY":0.00250319,"INCLINATION":86.2826,"RA_OF_ASC_NODE":309.4331,"ARG_OF_PERICENTER":283.7328,"MEAN_ANOMALY":207.4343,"EPHEMERIS_TYPE":0,"CLASSIFICATION_TYPE":"U","NORAD_CAT_ID":34146,"ELEMENT_SET_NO":999,"REV_AT_EPOCH":89430,"BSTAR":0.00058611369,"MEAN_MOTION_DOT":2.286e-5,"MEAN_MOTION_DDOT":0},{"OBJECT_NAME":"IRIDIUM 33 DEB","OBJECT_ID":"1997-051EN","EPOCH":"2026-03-13T07:03:31.920480","MEAN_MOTION":14.38766974,"ECCENTRICITY":0.00281295,"INCLINATION":86.3555,"RA_OF_ASC_NODE":9.6224,"ARG_OF_PERICENTER":354.9454,"MEAN_ANOMALY":5.1456,"EPHEMERIS_TYPE":0,"CLASSIFICATION_TYPE":"U","NORAD_CAT_ID":34159,"ELEMENT_SET_NO":999,"REV_AT_EPOCH":89261,"BSTAR":0.00052165768,"MEAN_MOTION_DOT":1.628e-5,"MEAN_MOTION_DDOT":0},{"OBJECT_NAME":"IRIDIUM 33 DEB","OBJECT_ID":"1997-051ES","EPOCH":"2026-03-14T15:51:08.098560","MEAN_MOTION":14.45705643,"ECCENTRICITY":0.00202431,"INCLINATION":86.3294,"RA_OF_ASC_NODE":322.9367,"ARG_OF_PERICENTER":188.5979,"MEAN_ANOMALY":200.9366,"EPHEMERIS_TYPE":0,"CLASSIFICATION_TYPE":"U","NORAD_CAT_ID":34350,"ELEMENT_SET_NO":999,"REV_AT_EPOCH":89621,"BSTAR":0.00034716746,"MEAN_MOTION_DOT":1.251e-5,"MEAN_MOTION_DDOT":0},{"OBJECT_NAME":"IRIDIUM 33 DEB","OBJECT_ID":"1997-051FJ","EPOCH":"2026-03-14T02:32:07.278720","MEAN_MOTION":14.55061984,"ECCENTRICITY":0.00190764,"INCLINATION":86.3729,"RA_OF_ASC_NODE":9.5393,"ARG_OF_PERICENTER":186.9204,"MEAN_ANOMALY":234.0889,"EPHEMERIS_TYPE":0,"CLASSIFICATION_TYPE":"U","NORAD_CAT_ID":34366,"ELEMENT_SET_NO":999,"REV_AT_EPOCH":89510,"BSTAR":0.0011842586,"MEAN_MOTION_DOT":5.138e-5,"MEAN_MOTION_DDOT":0},{"OBJECT_NAME":"IRIDIUM 33 DEB","OBJECT_ID":"1997-051FT","EPOCH":"2026-03-14T15:38:35.793024","MEAN_MOTION":14.18191554,"ECCENTRICITY":0.01019564,"INCLINATION":86.4338,"RA_OF_ASC_NODE":145.6792,"ARG_OF_PERICENTER":193.7657,"MEAN_ANOMALY":320.4624,"EPHEMERIS_TYPE":0,"CLASSIFICATION_TYPE":"U","NORAD_CAT_ID":34375,"ELEMENT_SET_NO":999,"REV_AT_EPOCH":88014,"BSTAR":0.00047979924,"MEAN_MOTION_DOT":1.056e-5,"MEAN_MOTION_DDOT":0},{"OBJECT_NAME":"IRIDIUM 33 DEB","OBJECT_ID":"1997-051FU","EPOCH":"2026-03-14T10:22:08.422752","MEAN_MOTION":14.64625831,"ECCENTRICITY":0.00230085,"INCLINATION":86.2987,"RA_OF_ASC_NODE":325.2634,"ARG_OF_PERICENTER":216.43,"MEAN_ANOMALY":143.5348,"EPHEMERIS_TYPE":0,"CLASSIFICATION_TYPE":"U","NORAD_CAT_ID":34376,"ELEMENT_SET_NO":999,"REV_AT_EPOCH":89348,"BSTAR":0.0015644755,"MEAN_MOTION_DOT":8.368e-5,"MEAN_MOTION_DDOT":0},{"OBJECT_NAME":"IRIDIUM 33 DEB","OBJECT_ID":"1997-051GB","EPOCH":"2026-03-14T11:06:39.787200","MEAN_MOTION":15.02510422,"ECCENTRICITY":0.00105518,"INCLINATION":86.392,"RA_OF_ASC_NODE":329.4793,"ARG_OF_PERICENTER":124.4605,"MEAN_ANOMALY":52.2068,"EPHEMERIS_TYPE":0,"CLASSIFICATION_TYPE":"U","NORAD_CAT_ID":34486,"ELEMENT_SET_NO":999,"REV_AT_EPOCH":90360,"BSTAR":0.0027544623,"MEAN_MOTION_DOT":0.00036782,"MEAN_MOTION_DDOT":0}]
