IRIDIUM 33 DEB          
1 33960U 97051BV  26073.47051965  .00030641  00000+0  31167-2 0  9991
2 33960  86.2494 246.0636 0002563 105.5308 282.9971 14.90626538902318
IRIDIUM 33 DEB          
1 33966U 97051CB  26073.57125415  .00002650  00000+0  67860-3 0  9999
2 33966  86.3970   6.6042 0005021 256.4890 283.2892 14.50072651897720
IRIDIUM 33 DEB          
1 34071U 97051CE  26073.52890750  .00002663  00000+0  68217-3 0  9994
2 34071  86.3494 337.9346 0008011 146.4386 213.7328 14.50028805896640
IRIDIUM 33 DEB          
1 34077U 97051CL  26073.61517003  .00014106  00000+0  25234-2 0  9993
2 34077  86.3886  10.9723 0012428  73.5353 104.3596 14.66737329896781
IRIDIUM 33 DEB          
1 34079U 97051CN  26073.20260382  .00017735  00000+0  19631-2 0  9990
2 34079  86.3783 326.9568 0008712  34.5820  86.9982 14.87226987903355
IRIDIUM 33 DEB          
1 34088U 97051CX  26073.55708311  .00051358  00000+0  42679-2 0  9994
2 34088  86.3860 348.3225 0002293 125.0759 353.6474 14.98496038901136
IRIDIUM 33 DEB          
1 34091U 97051DA  26073.56467306  .00063329  00000+0  64068-2 0  9992
2 34091  86.3449  24.5102 0029387 342.1765  17.8428 14.90358994892308
IRIDIUM 33 DEB          
1 34097U 97051DG  26073.62121807  .00004181  00000+0  13880-2 0  9995
2 34097  86.2007 320.8414 0083884  61.0096 299.9475 14.35588058884375
IRIDIUM 33 DEB          
1 34145U 97051DY  26073.57508668  .00003313  00000+0  96470-3 0  9990
2 34145  86.2079 291.6037 0053062 149.3379 211.0942 14.43122877889622
IRIDIUM 33 DEB          
1 34146U 97051DZ  26073.10904669  .00002286  00000+0  58611-3 0  9994
2 34146  86.2826 309.4331 0025031 283.7328 207.4343 14.49757989894309
IRIDIUM 33 DEB          
1 34159U 97051EN  26072.29411945  .00001628  00000+0  52166-3 0  9995
2 34159  86.3555   9.6224 0028129 354.9454   5.1456 14.38766974892617
IRIDIUM 33 DEB          
1 34350U 97051ES  26073.66051040  .00001251  00000+0  34717-3 0  9990
2 34350  86.3294 322.9367 0020243 188.5979 200.9366 14.45705643896210
IRIDIUM 33 DEB          
1 34366U 97051FJ  26073.10563980  .00005138  00000+0  11843-2 0  9999
2 34366  86.3729   9.5393 0019076 186.9204 234.0889 14.55061984895101
IRIDIUM 33 DEB          
1 34375U 97051FT  26073.65180316  .00001056  00000+0  47980-3 0  9994
2 34375  86.4338 145.6792 0101956 193.7657 320.4624 14.18191554880141
IRIDIUM 33 DEB          
1 34376U 97051FU  26073.43204193  .00008368  00000+0  15645-2 0  9996
2 34376  86.2987 325.2634 0023008 216.4300 143.5348 14.64625831893489
IRIDIUM 33 DEB          
1 34486U 97051GB  26073.46296050  .00036782  00000+0  27545-2 0  9997
2 34486  86.3920 329.4793 0010551 124.4605  52.2068 15.02510422903609
